[{"OBJECT_NAME":"STARLINK-6319","OBJECT_ID":"2023-065AF","EPOCH":"2025-12-29T18:40:13.994400","MEAN_MOTION":15.02532764,"ECCENTRICITY":9.88e-5,"INCLINATION":43.0027,"RA_OF_ASC_NODE":217.597,"ARG_OF_PERICENTER":264.3855,"MEAN_ANOMALY":95.6875,"EPHEMERIS_TYPE":0,"CLASSIFICATION_TYPE":"U","NORAD_CAT_ID":56532,"ELEMENT_SET_NO":999,"REV_AT_EPOCH":14625,"BSTAR":0.00011482,"MEAN_MOTION_DOT":1.348e-5,"MEAN_MOTION_DDOT":0},{"OBJECT_NAME":"STARLINK-6310","OBJECT_ID":"2023-065AG","EPOCH":"2025-12-28T15:08:51.123264","MEAN_MOTION":15.02547025,"ECCENTRICITY":0.0001155,"INCLINATION":43.0025,"RA_OF_ASC_NODE":223.6111,"ARG_OF_PERICENTER":258.3432,"MEAN_ANOMALY":101.728,"EPHEMERIS_TYPE":0,"CLASSIFICATION_TYPE":"U","NORAD_CAT_ID":56533,"ELEMENT_SET_NO":999,"REV_AT_EPOCH":14608,"BSTAR":9.5377e-6,"MEAN_MOTION_DOT":-7.5e-7,"MEAN_MOTION_DDOT":0},{"OBJECT_NAME":"STARLINK-6308","OBJECT_ID":"2023-065AH","EPOCH":"2025-12-29T01:02:26.433600","MEAN_MOTION":15.02514321,"ECCENTRICITY":8.028e-5,"INCLINATION":43.0002,"RA_OF_ASC_NODE":221.5452,"ARG_OF_PERICENTER":277.9637,"MEAN_ANOMALY":82.1114,"EPHEMERIS_TYPE":0,"CLASSIFICATION_TYPE":"U","NORAD_CAT_ID":56534,"ELEMENT_SET_NO":999,"REV_AT_EPOCH":14614,"BSTAR":-0.00010027879,"MEAN_MOTION_DOT":-1.557e-5,"MEAN_MOTION_DDOT":0},{"OBJECT_NAME":"STARLINK-6309","OBJECT_ID":"2023-065AJ","EPOCH":"2025-12-29T02:18:12.857760","MEAN_MOTION":15.02548291,"ECCENTRICITY":0.00015522,"INCLINATION":43.0031,"RA_OF_ASC_NODE":247.1146,"ARG_OF_PERICENTER":270.5517,"MEAN_ANOMALY":89.5147,"EPHEMERIS_TYPE":0,"CLASSIFICATION_TYPE":"U","NORAD_CAT_ID":56535,"ELEMENT_SET_NO":999,"REV_AT_EPOCH":14585,"BSTAR":0.00013900254,"MEAN_MOTION_DOT":1.675e-5,"MEAN_MOTION_DDOT":0},{"OBJECT_NAME":"STARLINK-6312","OBJECT_ID":"2023-065AK","EPOCH":"2025-12-29T02:08:37.398336","MEAN_MOTION":15.02534283,"ECCENTRICITY":9.958e-5,"INCLINATION":43.0032,"RA_OF_ASC_NODE":247.0644,"ARG_OF_PERICENTER":274.7267,"MEAN_ANOMALY":85.3461,"EPHEMERIS_TYPE":0,"CLASSIFICATION_TYPE":"U","NORAD_CAT_ID":56536,"ELEMENT_SET_NO":999,"REV_AT_EPOCH":14585,"BSTAR":2.7486085e-5,"MEAN_MOTION_DOT":1.68e-6,"MEAN_MOTION_DDOT":0},{"OBJECT_NAME":"STARLINK-6311","OBJECT_ID":"2023-065AL","EPOCH":"2025-12-29T02:13:25.087008","MEAN_MOTION":15.02538502,"ECCENTRICITY":0.00010167,"INCLINATION":43.0032,"RA_OF_ASC_NODE":247.0919,"ARG_OF_PERICENTER":279.0559,"MEAN_ANOMALY":81.0168,"EPHEMERIS_TYPE":0,"CLASSIFICATION_TYPE":"U","NORAD_CAT_ID":56537,"ELEMENT_SET_NO":999,"REV_AT_EPOCH":14585,"BSTAR":-1.1894112e-5,"MEAN_MOTION_DOT":-3.64e-6,"MEAN_MOTION_DDOT":0},{"OBJECT_NAME":"STARLINK-6314","OBJECT_ID":"2023-065AM","EPOCH":"2025-12-29T00:38:25.247040","MEAN_MOTION":15.02558077,"ECCENTRICITY":0.00016917,"INCLINATION":43.0056,"RA_OF_ASC_NODE":221.4131,"ARG_OF_PERICENTER":260.1729,"MEAN_ANOMALY":99.8922,"EPHEMERIS_TYPE":0,"CLASSIFICATION_TYPE":"U","NORAD_CAT_ID":56538,"ELEMENT_SET_NO":999,"REV_AT_EPOCH":14614,"BSTAR":-0.00033058442,"MEAN_MOTION_DOT":-4.669e-5,"MEAN_MOTION_DDOT":0},{"OBJECT_NAME":"STARLINK-6135","OBJECT_ID":"2023-065AN","EPOCH":"2025-12-28T22:47:34.902528","MEAN_MOTION":15.02537036,"ECCENTRICITY":8.896e-5,"INCLINATION":43.0023,"RA_OF_ASC_NODE":247.7364,"ARG_OF_PERICENTER":273.3962,"MEAN_ANOMALY":86.6779,"EPHEMERIS_TYPE":0,"CLASSIFICATION_TYPE":"U","NORAD_CAT_ID":56539,"ELEMENT_SET_NO":999,"REV_AT_EPOCH":14583,"BSTAR":-5.012751e-6,"MEAN_MOTION_DOT":-2.71e-6,"MEAN_MOTION_DDOT":0},{"OBJECT_NAME":"STARLINK-6136","OBJECT_ID":"2023-065AP","EPOCH":"2025-12-29T00:18:30.737664","MEAN_MOTION":15.02533428,"ECCENTRICITY":0.00011692,"INCLINATION":43.0024,"RA_OF_ASC_NODE":247.3565,"ARG_OF_PERICENTER":261.4788,"MEAN_ANOMALY":98.5922,"EPHEMERIS_TYPE":0,"CLASSIFICATION_TYPE":"U","NORAD_CAT_ID":56540,"ELEMENT_SET_NO":999,"REV_AT_EPOCH":14584,"BSTAR":7.9878747e-5,"MEAN_MOTION_DOT":8.76e-6,"MEAN_MOTION_DDOT":0},{"OBJECT_NAME":"STARLINK-6249","OBJECT_ID":"2023-065AQ","EPOCH":"2025-12-29T01:55:50.149920","MEAN_MOTION":15.02535456,"ECCENTRICITY":0.000126,"INCLINATION":43.003,"RA_OF_ASC_NODE":247.001,"ARG_OF_PERICENTER":269.708,"MEAN_ANOMALY":90.3618,"EPHEMERIS_TYPE":0,"CLASSIFICATION_TYPE":"U","NORAD_CAT_ID":56541,"ELEMENT_SET_NO":999,"REV_AT_EPOCH":14585,"BSTAR":2.9910985e-5,"MEAN_MOTION_DOT":2.0e-6,"MEAN_MOTION_DDOT":0},{"OBJECT_NAME":"STARLINK-6266","OBJECT_ID":"2023-065AR","EPOCH":"2025-12-28T22:52:22.023552","MEAN_MOTION":15.02528686,"ECCENTRICITY":0.00015614,"INCLINATION":43.0031,"RA_OF_ASC_NODE":247.7647,"ARG_OF_PERICENTER":260.0608,"MEAN_ANOMALY":100.0059,"EPHEMERIS_TYPE":0,"CLASSIFICATION_TYPE":"U","NORAD_CAT_ID":56542,"ELEMENT_SET_NO":999,"REV_AT_EPOCH":14583,"BSTAR":0.00022619685,"MEAN_MOTION_DOT":2.853e-5,"MEAN_MOTION_DDOT":0},{"OBJECT_NAME":"STARLINK-6226","OBJECT_ID":"2023-065AT","EPOCH":"2025-12-29T00:55:06.178080","MEAN_MOTION":15.02536016,"ECCENTRICITY":0.00010486,"INCLINATION":43.0024,"RA_OF_ASC_NODE":246.6946,"ARG_OF_PERICENTER":273.0403,"MEAN_ANOMALY":87.032,"EPHEMERIS_TYPE":0,"CLASSIFICATION_TYPE":"U","NORAD_CAT_ID":56544,"ELEMENT_SET_NO":999,"REV_AT_EPOCH":14585,"BSTAR":5.5075912e-5,"MEAN_MOTION_DOT":5.4e-6,"MEAN_MOTION_DDOT":0},{"OBJECT_NAME":"STARLINK-6086","OBJECT_ID":"2023-065AU","EPOCH":"2025-12-28T09:42:36.660672","MEAN_MOTION":15.02516429,"ECCENTRICITY":0.00010866,"INCLINATION":43.0023,"RA_OF_ASC_NODE":250.5274,"ARG_OF_PERICENTER":261.5437,"MEAN_ANOMALY":98.5282,"EPHEMERIS_TYPE":0,"CLASSIFICATION_TYPE":"U","NORAD_CAT_ID":56545,"ELEMENT_SET_NO":999,"REV_AT_EPOCH":14575,"BSTAR":-0.00010144272,"MEAN_MOTION_DOT":-1.573e-5,"MEAN_MOTION_DDOT":0},{"OBJECT_NAME":"STARLINK-6187","OBJECT_ID":"2023-065AV","EPOCH":"2025-12-29T09:49:40.760256","MEAN_MOTION":15.025354,"ECCENTRICITY":0.0001201,"INCLINATION":43.0022,"RA_OF_ASC_NODE":245.1696,"ARG_OF_PERICENTER":270.0471,"MEAN_ANOMALY":90.0234,"EPHEMERIS_TYPE":0,"CLASSIFICATION_TYPE":"U","NORAD_CAT_ID":56546,"ELEMENT_SET_NO":999,"REV_AT_EPOCH":14590,"BSTAR":-1.4706e-5,"MEAN_MOTION_DOT":-4.02e-6,"MEAN_MOTION_DDOT":0},{"OBJECT_NAME":"STARLINK-6291","OBJECT_ID":"2023-065AW","EPOCH":"2025-12-29T00:51:54.739008","MEAN_MOTION":15.0253486,"ECCENTRICITY":8.526e-5,"INCLINATION":43.0034,"RA_OF_ASC_NODE":246.6711,"ARG_OF_PERICENTER":273.4768,"MEAN_ANOMALY":86.5977,"EPHEMERIS_TYPE":0,"CLASSIFICATION_TYPE":"U","NORAD_CAT_ID":56547,"ELEMENT_SET_NO":999,"REV_AT_EPOCH":14585,"BSTAR":8.914176e-6,"MEAN_MOTION_DOT":-8.3e-7,"MEAN_MOTION_DDOT":0},{"OBJECT_NAME":"STARLINK-6244","OBJECT_ID":"2023-065AX","EPOCH":"2025-12-29T01:44:38.308704","MEAN_MOTION":15.02540823,"ECCENTRICITY":0.00011447,"INCLINATION":43.0027,"RA_OF_ASC_NODE":246.9402,"ARG_OF_PERICENTER":273.6674,"MEAN_ANOMALY":86.4037,"EPHEMERIS_TYPE":0,"CLASSIFICATION_TYPE":"U","NORAD_CAT_ID":56548,"ELEMENT_SET_NO":999,"REV_AT_EPOCH":14585,"BSTAR":0.00010573057,"MEAN_MOTION_DOT":1.225e-5,"MEAN_MOTION_DDOT":0}]
