STARLINK-6319           
1 56532U 23065AF  25363.77793975  .00001348  00000+0  11482-3 0  9994
2 56532  43.0027 217.5970 0000988 264.3855  95.6875 15.02532764146251
STARLINK-6310           
1 56533U 23065AG  25362.63114726 -.00000075  00000+0  95377-5 0  9994
2 56533  43.0025 223.6111 0001155 258.3432 101.7280 15.02547025146082
STARLINK-6308           
1 56534U 23065AH  25363.04336150 -.00001557  00000+0 -10028-3 0  9993
2 56534  43.0002 221.5452 0000802 277.9637  82.1114 15.02514321146143
STARLINK-6309           
1 56535U 23065AJ  25363.09598215  .00001675  00000+0  13900-3 0  9992
2 56535  43.0031 247.1146 0001552 270.5517  89.5147 15.02548291145856
STARLINK-6312           
1 56536U 23065AK  25363.08932174  .00000168  00000+0  27486-4 0  9999
2 56536  43.0032 247.0644 0000995 274.7267  85.3461 15.02534283145857
STARLINK-6311           
1 56537U 23065AL  25363.09265147 -.00000364  00000+0 -11894-4 0  9996
2 56537  43.0032 247.0919 0001016 279.0559  81.0168 15.02538502145855
STARLINK-6314           
1 56538U 23065AM  25363.02668110 -.00004669  00000+0 -33058-3 0  9994
2 56538  43.0056 221.4131 0001691 260.1729  99.8922 15.02558077146140
STARLINK-6135           
1 56539U 23065AN  25362.94970952 -.00000271  00000+0 -50128-5 0  9999
2 56539  43.0023 247.7364 0000889 273.3962  86.6779 15.02537036145838
STARLINK-6136           
1 56540U 23065AP  25363.01285576  .00000876  00000+0  79879-4 0  9993
2 56540  43.0024 247.3565 0001169 261.4788  98.5922 15.02533428145840
STARLINK-6249           
1 56541U 23065AQ  25363.08044155  .00000200  00000+0  29911-4 0  9990
2 56541  43.0030 247.0010 0001260 269.7080  90.3618 15.02535456145854
STARLINK-6266           
1 56542U 23065AR  25362.95303268  .00002853  00000+0  22620-3 0  9994
2 56542  43.0031 247.7647 0001561 260.0608 100.0059 15.02528686145836
STARLINK-6226           
1 56544U 23065AT  25363.03826595  .00000540  00000+0  55076-4 0  9992
2 56544  43.0024 246.6946 0001048 273.0403  87.0320 15.02536016145850
STARLINK-6086           
1 56545U 23065AU  25362.40459098 -.00001573  00000+0 -10144-3 0  9998
2 56545  43.0023 250.5274 0001086 261.5437  98.5282 15.02516429145758
STARLINK-6187           
1 56546U 23065AV  25363.40949954 -.00000402  00000+0 -14706-4 0  9994
2 56546  43.0022 245.1696 0001201 270.0471  90.0234 15.02535400145909
STARLINK-6291           
1 56547U 23065AW  25363.03605022 -.00000083  00000+0  89142-5 0  9990
2 56547  43.0034 246.6711 0000852 273.4768  86.5977 15.02534860145851
STARLINK-6244           
1 56548U 23065AX  25363.07266561  .00001225  00000+0  10573-3 0  9994
2 56548  43.0027 246.9402 0001144 273.6674  86.4037 15.02540823145859
